OBJECT_NAME,OBJECT_ID,EPOCH,MEAN_MOTION,ECCENTRICITY,INCLINATION,RA_OF_ASC_NODE,ARG_OF_PERICENTER,MEAN_ANOMALY,EPHEMERIS_TYPE,CLASSIFICATION_TYPE,NORAD_CAT_ID,ELEMENT_SET_NO,REV_AT_EPOCH,BSTAR,MEAN_MOTION_DOT,MEAN_MOTION_DDOT
HAWK-5A,2022-057AB,2026-07-06T17:05:23.836416,15.52112990,.0004101,97.6630,347.8331,10.3745,349.7591,0,U,52757,999,22937,.24873E-3,.14932E-3,0
HAWK-6B,2023-011A,2026-07-06T14:13:17.044032,15.23104439,.0002872,40.4971,238.8741,193.0540,167.0196,0,U,55324,999,19080,.1503E-3,.3425E-4,0
HAWK-6C,2023-011C,2026-07-06T14:12:23.406912,15.23104424,.0003231,40.4956,235.7136,178.1092,181.9730,0,U,55326,999,19081,.16225E-3,.3714E-4,0
HAWK-6A,2023-011D,2026-07-06T14:12:26.316000,15.23105575,.0002762,40.4967,237.3402,177.2509,182.8315,0,U,55327,999,19081,.16152E-3,.3696E-4,0
HAWK-7A,2023-054P,2026-07-06T18:19:27.435072,15.27572982,.00024,97.2674,74.6028,8.5213,351.6067,0,U,56191,999,18001,.18412E-3,.4892E-4,0
HAWK-7B,2023-054R,2026-07-06T18:19:21.109728,15.27575695,.0002252,97.2701,72.8737,31.9204,328.2172,0,U,56193,999,18001,.18418E-3,.4894E-4,0
HAWK-7C,2023-054Y,2026-07-06T18:19:11.400096,15.27574338,.0001922,97.2677,73.6361,19.6555,340.4758,0,U,56200,999,18001,.18249E-3,.4848E-4,0
