HAWK-5A                 
1 52757U 22057AB  26187.71208144  .00014932  00000+0  24873-3 0  9998
2 52757  97.6630 347.8331 0004101  10.3745 349.7591 15.52112990229370
HAWK-6B                 
1 55324U 23011A   26187.59255838  .00003425  00000+0  15030-3 0  9990
2 55324  40.4971 238.8741 0002872 193.0540 167.0196 15.23104439190800
HAWK-6C                 
1 55326U 23011C   26187.59193758  .00003714  00000+0  16225-3 0  9992
2 55326  40.4956 235.7136 0003231 178.1092 181.9730 15.23104424190819
HAWK-6A                 
1 55327U 23011D   26187.59197125  .00003696  00000+0  16152-3 0  9993
2 55327  40.4967 237.3402 0002762 177.2509 182.8315 15.23105575190814
HAWK-7A                 
1 56191U 23054P   26187.76351198  .00004892  00000+0  18412-3 0  9991
2 56191  97.2674  74.6028 0002400   8.5213 351.6067 15.27572982180017
HAWK-7B                 
1 56193U 23054R   26187.76343877  .00004894  00000+0  18418-3 0  9996
2 56193  97.2701  72.8737 0002252  31.9204 328.2172 15.27575695180013
HAWK-7C                 
1 56200U 23054Y   26187.76332639  .00004848  00000+0  18249-3 0  9990
2 56200  97.2677  73.6361 0001922  19.6555 340.4758 15.27574338180010
